NORAD_CAT_ID,OBJECT_NAME,OBJECT_TYPE,EPOCH,MEAN_MOTION,ECCENTRICITY,INCLINATION,RA_OF_ASC_NODE,ARG_OF_PERICENTER,MEAN_ANOMALY,BSTAR,MEAN_MOTION_DOT,MEAN_MOTION_DDOT,TLE_LINE0,TLE_LINE1,TLE_LINE2,SEMIMAJOR_AXIS,PERIOD,APOGEE,PERIGEE,DECAYED
51780.0,STARLINK-3617,PAYLOAD,2023-04-21 11:53:50,15.08842147,0.000133,53.2188,27.1197,80.1016,280.0126,0.00041098,6.259e-05,0.0,0 STARLINK-3617,1 51780U 22017N   23111.49571969  .00006259  00000-0  41098-3 0  9998,2 51780  53.2188  27.1197 0001330  80.1016 280.0126 15.08842147 63424,6917.874,95.437,540.659,538.819,0.0
51780.0,STARLINK-3617,PAYLOAD,2023-04-21 18:15:22,15.08844493,0.000136,53.2186,25.9306,77.8176,282.2968,0.00064472,9.989e-05,0.0,0 STARLINK-3617,1 51780U 22017N   23111.76068037  .00009989  00000-0  64472-3 0  9999,2 51780  53.2186  25.9306 0001360  77.8176 282.2968 15.08844493 63461,6917.867,95.437,540.672,538.791,0.0
51780.0,STARLINK-3617,PAYLOAD,2023-04-22 00:36:54,15.0885927,0.000132,53.2172,24.743,67.1585,292.9547,0.00089927,0.0001406,0.0,0 STARLINK-3617,1 51780U 22017N   23112.02563592  .00014060  00000-0  89927-3 0  9993,2 51780  53.2172  24.7430 0001320  67.1585 292.9547 15.08859270 65195,6917.821,95.436,540.6,538.773,0.0
51780.0,STARLINK-3617,PAYLOAD,2023-04-22 18:06:09,15.08852697,0.0001057,53.2184,21.4718,70.2523,289.8583,0.00026894,3.996e-05,0.0,0 STARLINK-3617,1 51780U 22017N   23112.75427170  .00003996  00000-0  26894-3 0  9994,2 51780  53.2184  21.4718 0001057  70.2523 289.8583 15.08852697 65309,6917.842,95.437,540.438,538.975,0.0
51780.0,STARLINK-3617,PAYLOAD,2023-04-23 00:27:41,15.08854388,0.0001162,53.2178,20.2805,70.6642,289.4476,0.00032994,4.969e-05,0.0,0 STARLINK-3617,1 51780U 22017N   23113.01923040  .00004969  00000-0  32994-3 0  9990,2 51780  53.2178  20.2805 0001162  70.6642 289.4476 15.08854388 63651,6917.836,95.437,540.505,538.898,0.0
51780.0,STARLINK-3617,PAYLOAD,2023-04-23 17:56:56,15.08840697,0.0001413,53.2181,17.0119,75.9338,284.1811,2.7514e-05,1.5e-06,0.0,0 STARLINK-3617,1 51780U 22017N   23113.74787289  .00000150  00000-0  27514-4 0  9994,2 51780  53.2181  17.0119 0001413  75.9338 284.1811 15.08840697 65459,6917.878,95.438,540.721,538.766,0.0
51780.0,STARLINK-3617,PAYLOAD,2023-04-24 03:29:14,15.08870867,0.0001531,53.2188,15.2245,101.4293,258.6871,0.00059718,9.237e-05,0.0,0 STARLINK-3617,1 51780U 22017N   23114.14530276  .00009237  00000-0  59718-3 0  9996,2 51780  53.2188  15.2245 0001531 101.4293 258.6871 15.08870867 65513,6917.786,95.436,540.71,538.592,0.0
51780.0,STARLINK-3617,PAYLOAD,2023-04-25 00:09:13,15.08887331,0.0001089,53.2193,11.363,92.5626,267.5491,0.0011211,0.00017622,0.0,0 STARLINK-3617,1 51780U 22017N   23115.00640816  .00017622  00000-0  11211-2 0  9996,2 51780  53.2193  11.3630 0001089  92.5626 267.5491 15.08887331 63959,6917.736,95.435,540.354,538.847,0.0
51780.0,STARLINK-3617,PAYLOAD,2023-04-26 04:46:13,15.08766142,9.77e-05,53.2171,6.0082,105.6755,254.4345,-0.00058841,-9.621e-05,0.0,0 STARLINK-3617,1 51780U 22017N   23116.19877266 -.00009621  00000-0 -58841-3 0  9991,2 51780  53.2171   6.0082 0000977 105.6755 254.4345 15.08766142 64131,6918.106,95.442,540.647,539.295,0.0
51780.0,STARLINK-3617,PAYLOAD,2023-04-26 15:53:56,15.08800392,7.62e-05,53.2171,3.928,109.7753,250.3322,0.0021016,0.00033281,0.0,0 STARLINK-3617,1 51780U 22017N   23116.66245475  .00033281  00000-0  21016-2 0  9994,2 51780  53.2171   3.9280 0000762 109.7753 250.3322 15.08800392 64206,6918.001,95.44,540.394,539.339,0.0
51780.0,STARLINK-3617,PAYLOAD,2023-04-27 23:41:37,15.08892217,7.4e-05,53.2168,357.9802,136.8943,223.2108,0.0013394,0.00021123,0.0,0 STARLINK-3617,1 51780U 22017N   23117.98723515  .00021123  00000-0  13394-2 0  9998,2 51780  53.2168 357.9802 0000740 136.8943 223.2108 15.08892217 66099,6917.721,95.434,540.098,539.074,0.0
51780.0,STARLINK-3617,PAYLOAD,2023-04-28 04:27:46,15.08879488,7.51e-05,53.2166,357.0875,122.6568,237.4497,0.00076865,0.0001198,0.0,0 STARLINK-3617,1 51780U 22017N   23118.18595176  .00011980  00000-0  76865-3 0  9994,2 51780  53.2166 357.0875 0000751 122.6568 237.4497 15.08879488 66123,6917.76,95.435,540.144,539.105,0.0
51780.0,STARLINK-3617,PAYLOAD,2023-04-28 12:24:42,15.08838961,6.85e-05,53.2164,355.6016,92.799,267.3081,-0.00057661,-9.452e-05,0.0,0 STARLINK-3617,1 51780U 22017N   23118.51716030 -.00009452  00000-0 -57661-3 0  9991,2 51780  53.2164 355.6016 0000685  92.7990 267.3081 15.08838961 66171,6917.884,95.438,540.222,539.275,0.0
51780.0,STARLINK-3617,PAYLOAD,2023-04-29 04:18:34,15.08848127,6.5e-05,53.2166,352.6271,85.2235,274.8831,0.00074322,0.00011563,0.0,0 STARLINK-3617,1 51780U 22017N   23119.17956150  .00011563  00000-0  74322-3 0  9990,2 51780  53.2166 352.6271 0000650  85.2235 274.8831 15.08848127 66276,6917.856,95.437,540.17,539.271,0.0
51780.0,STARLINK-3617,PAYLOAD,2023-04-29 12:15:30,15.08840464,6.99e-05,53.2166,351.1406,92.4404,267.6668,0.00076077,0.00011841,0.0,0 STARLINK-3617,1 51780U 22017N   23119.51076482  .00011841  00000-0  76077-3 0  9997,2 51780  53.2166 351.1406 0000699  92.4404 267.6668 15.08840464 64633,6917.879,95.438,540.228,539.26,0.0
51780.0,STARLINK-3617,PAYLOAD,2023-04-29 20:12:25,15.08852197,6.97e-05,53.2169,349.6538,74.0777,286.0292,0.00086783,0.00013555,0.0,0 STARLINK-3617,1 51780U 22017N   23119.84196311  .00013555  00000-0  86783-3 0  9996,2 51780  53.2169 349.6538 0000697  74.0777 286.0292 15.08852197 66378,6917.843,95.437,540.19,539.226,0.0
51780.0,STARLINK-3617,PAYLOAD,2023-04-29 23:23:11,15.08857377,7.02e-05,53.2169,349.0591,75.0033,285.1037,0.00093776,0.00014675,0.0,0 STARLINK-3617,1 51780U 22017N   23119.97444141  .00014675  00000-0  93776-3 0  9991,2 51780  53.2169 349.0591 0000702  75.0033 285.1037 15.08857377 64701,6917.827,95.436,540.178,539.207,0.0
51780.0,STARLINK-3617,PAYLOAD,2023-04-30 15:17:03,15.08848885,7.47e-05,53.2171,346.0854,96.4879,263.6198,0.00044918,6.87e-05,0.0,0 STARLINK-3617,1 51780U 22017N   23120.63684210  .00006870  00000-0  44918-3 0  9991,2 51780  53.2171 346.0854 0000747  96.4879 263.6198 15.08848885 66498,6917.853,95.437,540.235,539.201,0.0
51780.0,STARLINK-3617,PAYLOAD,2023-04-30 23:13:58,15.08842091,7.58e-05,53.2171,344.5988,72.6083,287.4992,0.00015576,2.192e-05,0.0,0 STARLINK-3617,1 51780U 22017N   23120.96804259  .00002192  00000-0  15576-3 0  9995,2 51780  53.2171 344.5988 0000758  72.6083 287.4992 15.08842091 66549,6917.874,95.437,540.263,539.215,0.0
51780.0,STARLINK-3617,PAYLOAD,2023-05-01 21:29:23,15.08839458,7.76e-05,53.2169,340.4361,73.1433,286.9644,4.1854e-05,3.79e-06,0.0,0 STARLINK-3617,1 51780U 22017N   23121.89540551  .00000379  00000-0  41854-4 0  9994,2 51780  53.2169 340.4361 0000776  73.1433 286.9644 15.08839458 66687,6917.882,95.438,540.284,539.21,0.0
51780.0,STARLINK-3617,PAYLOAD,2023-05-02 21:20:09,15.0884614,8.16e-05,53.2175,335.9764,96.4494,263.6592,0.00018145,2.602e-05,0.0,0 STARLINK-3617,1 51780U 22017N   23122.88900115  .00002602  00000-0  18145-3 0  9997,2 51780  53.2175 335.9764 0000816  96.4494 263.6592 15.08846140 65140,6917.862,95.437,540.291,539.162,0.0
51780.0,STARLINK-3617,PAYLOAD,2023-05-03 00:30:55,15.08849915,7.43e-05,53.2169,335.3802,84.8418,275.2659,0.00021802,3.185e-05,0.0,0 STARLINK-3617,1 51780U 22017N   23123.02147888  .00003185  00000-0  21802-3 0  9995,2 51780  53.2169 335.3802 0000743  84.8418 275.2659 15.08849915 66851,6917.85,95.437,540.229,539.201,0.0
51780.0,STARLINK-3617,PAYLOAD,2023-05-03 06:52:28,15.08842051,8.54e-05,53.2175,334.1884,99.4879,260.621,9.4193e-05,1.212e-05,0.0,0 STARLINK-3617,1 51780U 22017N   23123.28644261  .00001212  00000-0  94193-4 0  9993,2 51780  53.2175 334.1884 0000854  99.4879 260.6210 15.08842051 66890,6917.874,95.437,540.33,539.148,0.0
51780.0,STARLINK-3617,PAYLOAD,2023-05-03 21:10:57,15.08838512,9.13e-05,53.2177,331.5125,77.4681,282.6413,1.0284e-05,-1.24e-06,0.0,0 STARLINK-3617,1 51780U 22017N   23123.88260487 -.00000124  00000-0  10284-4 0  9994,2 51780  53.2177 331.5125 0000913  77.4681 282.6413 15.08838512 65293,6917.885,95.438,540.382,539.118,0.0
51780.0,STARLINK-3617,PAYLOAD,2023-05-04 00:21:43,15.08844405,9e-05,53.219,330.9179,76.2512,283.858,0.00011518,1.546e-05,0.0,0 STARLINK-3617,1 51780U 22017N   23124.01508346  .00001546  00000-0  11518-3 0  9997,2 51780  53.2190 330.9179 0000900  76.2512 283.8580 15.08844405 65315,6917.867,95.437,540.355,539.109,0.0
51780.0,STARLINK-3617,PAYLOAD,2023-05-04 21:01:44,15.08844363,7.96e-05,53.2178,327.0536,77.4299,282.6783,1.5686e-05,-3.8e-07,0.0,0 STARLINK-3617,1 51780U 22017N   23124.87620568 -.00000038  00000-0  15686-4 0  9999,2 51780  53.2178 327.0536 0000796  77.4299 282.6783 15.08844363 65442,6917.867,95.437,540.283,539.181,0.0
51780.0,STARLINK-3617,PAYLOAD,2023-05-04 22:37:06,15.088463,8.1e-05,53.2177,326.7553,79.344,280.7644,8.0993e-05,1.002e-05,0.0,0 STARLINK-3617,1 51780U 22017N   23124.94244191  .00001002  00000-0  80993-4 0  9995,2 51780  53.2177 326.7553 0000810  79.3440 280.7644 15.08846300 67149,6917.861,95.437,540.286,539.166,0.0
51780.0,STARLINK-3617,PAYLOAD,2023-05-05 12:55:36,15.08828832,6.33e-05,53.2177,324.0801,78.2966,281.8097,3.4501e-05,2.61e-06,0.0,0 STARLINK-3617,1 51780U 22017N   23125.53861558  .00000261  00000-0  34501-4 0  9993,2 51780  53.2177 324.0801 0000633  78.2966 281.8097 15.08828832 67234,6917.915,95.438,540.217,539.342,0.0
51780.0,STARLINK-3617,PAYLOAD,2023-05-05 20:52:31,15.08840691,8.73e-05,53.2166,322.5943,87.8255,272.2837,6.7922e-05,7.93e-06,0.0,0 STARLINK-3617,1 51780U 22017N   23125.86980665  .00000793  00000-0  67922-4 0  9993,2 51780  53.2166 322.5943 0000873  87.8255 272.2837 15.08840691 67283,6917.878,95.438,540.347,539.139,0.0
51780.0,STARLINK-3617,PAYLOAD,2023-05-06 01:38:40,15.08845631,8.27e-05,53.2163,321.7011,91.9135,268.1952,0.00014468,2.016e-05,0.0,0 STARLINK-3617,1 51780U 22017N   23126.06852409  .00002016  00000-0  14468-3 0  9996,2 51780  53.2163 321.7011 0000827  91.9135 268.1952 15.08845631 65626,6917.863,95.437,540.3,539.156,0.0
